[{"OBJECT_NAME":"STARLINK-31338","OBJECT_ID":"2024-044E","EPOCH":"2026-03-09T08:47:28.013280","MEAN_MOTION":15.27570232,"ECCENTRICITY":8.643e-5,"INCLINATION":43.002,"RA_OF_ASC_NODE":112.5114,"ARG_OF_PERICENTER":257.0767,"MEAN_ANOMALY":102.9988,"EPHEMERIS_TYPE":0,"CLASSIFICATION_TYPE":"U","NORAD_CAT_ID":59156,"ELEMENT_SET_NO":999,"REV_AT_EPOCH":11347,"BSTAR":-6.45568e-6,"MEAN_MOTION_DOT":-4.39e-6,"MEAN_MOTION_DDOT":0},{"OBJECT_NAME":"YAOGAN-43 01H","OBJECT_ID":"2024-148H","EPOCH":"2026-03-10T00:13:57.702432","MEAN_MOTION":15.25826805,"ECCENTRICITY":0.000635,"INCLINATION":34.994,"RA_OF_ASC_NODE":64.6147,"ARG_OF_PERICENTER":359.2394,"MEAN_ANOMALY":0.8311,"EPHEMERIS_TYPE":0,"CLASSIFICATION_TYPE":"U","NORAD_CAT_ID":60465,"ELEMENT_SET_NO":999,"REV_AT_EPOCH":8702,"BSTAR":0.00039232254,"MEAN_MOTION_DOT":0.00010268,"MEAN_MOTION_DDOT":0}]
